[{"OBJECT_NAME":"STARLINK-1807","OBJECT_ID":"2020-073AN","EPOCH":"2026-03-09T15:34:45.873120","MEAN_MOTION":15.23578372,"ECCENTRICITY":0.0005019,"INCLINATION":53.0589,"RA_OF_ASC_NODE":228.5688,"ARG_OF_PERICENTER":167.7565,"MEAN_ANOMALY":192.3554,"EPHEMERIS_TYPE":0,"CLASSIFICATION_TYPE":"U","NORAD_CAT_ID":46706,"ELEMENT_SET_NO":999,"REV_AT_EPOCH":29731,"BSTAR":0.0017212,"MEAN_MOTION_DOT":0.00041618,"MEAN_MOTION_DDOT":0},{"OBJECT_NAME":"TRANSPORTER-14 OBJECT AE","OBJECT_ID":"2025-135AE","EPOCH":"2026-03-09T20:11:29.488128","MEAN_MOTION":15.24010322,"ECCENTRICITY":0.00026151,"INCLINATION":97.4617,"RA_OF_ASC_NODE":185.7106,"ARG_OF_PERICENTER":72.7943,"MEAN_ANOMALY":287.358,"EPHEMERIS_TYPE":0,"CLASSIFICATION_TYPE":"U","NORAD_CAT_ID":64556,"ELEMENT_SET_NO":999,"REV_AT_EPOCH":3980,"BSTAR":0.00048718914,"MEAN_MOTION_DOT":0.00011742,"MEAN_MOTION_DDOT":0}]
